DUBAISAT-1              
1 35682U 09041B   26159.33870762  .00000847  00000+0  13296-3 0  9999
2 35682  98.0042 292.6943 0011742  98.7756 261.4783 14.75110184903792
OCEANSAT-2              
1 35931U 09051A   26159.47828323  .00000106  00000+0  98360-4 0  9992
2 35931  98.2330 147.1985 0014646 262.7015  97.2487 13.99664089878114
WORLDVIEW-2 (WV-2)      
1 35946U 09055A   26159.46553399  .00000112  00000+0  51519-4 0  9991
2 35946  98.4736 233.0351 0003269 239.8635 120.2228 14.37896896874398
SMOS                    
1 36036U 09059A   26159.50256448  .00000265  00000+0  98489-4 0  9992
2 36036  98.4427 346.9649 0001340  90.3378 269.7964 14.39768016872200
YAOGAN-7                
1 36110U 09069A   26159.42323208  .00000520  00000+0  79015-4 0  9994
2 36110  98.0083  45.3441 0025957  68.7505 291.6475 14.78001090888335
TANDEM-X                
1 36605U 10030A   26159.49711265  .00001053  00000+0  53316-4 0  9992
2 36605  97.4452 167.3280 0001832  92.3197 267.8248 15.19149084885320
CARTOSAT-2B             
1 36795U 10035A   26159.47490328  .00000444  00000+0  67773-4 0  9994
2 36795  97.9954 210.0799 0010458 213.7437 146.3110 14.78650175858560
YAOGAN-10               
1 36834U 10038A   26159.53705971  .00002023  00000+0  24156-3 0  9993
2 36834  97.8982 183.0109 0001703  86.9930  32.0865 14.85325257855922
COSMO-SKYMED 4          
1 37216U 10060A   26159.39731509  .00000510  00000+0  70656-4 0  9999
2 37216  97.8890 343.1246 0001414  83.8256 276.3118 14.82162251843260
RESOURCESAT-2           
1 37387U 11015A   26159.50232465  .00000077  00000+0  55281-4 0  9994
2 37387  98.7644 227.0038 0010135 283.5835  76.4213 14.21604666784945
HAIYANG-2A              
1 37781U 11043A   26159.52143797  .00000182  00000+0  23845-3 0  9991
2 37781  99.3398 162.3886 0006292 108.3012 251.8822 13.74550478745465
RASAT                   
1 37791U 11044D   26159.53429093  .00000772  00000+0  14239-3 0  9992
2 37791  98.0568 251.0633 0019559 217.1467 269.2956 14.68159688791914
SRMSAT                  
1 37841U 11058D   26159.20087963  .00000378  00000+0  61376-4 0  9990
2 37841  19.9708 113.8594 0011953 105.3030 101.4235 14.11573773756543
PLEIADES 1A             
1 38012U 11076F   26159.49409358  .00000400  00000+0  95861-4 0  9990
2 38012  98.1971 234.7133 0001506  98.3371  27.3464 14.58566300770724
ZIYUAN 1-02C (ZY 1-02C) 
1 38038U 11079A   26159.52806731  .00000438  00000+0  15826-3 0  9994
2 38038  98.4068 227.0174 0006060 345.7339 126.4961 14.38208346757960
ARIRANG-3 (KOMPSAT-3)   
1 38338U 12025B   26159.47886377  .00000459  00000+0  10030-3 0  9992
2 38338  98.1173 117.0894 0006312 131.7419 228.4323 14.62198691750074
EXACTVIEW-1 (ADS-1B)    
1 38709U 12039C   26159.32340449  .00000132  00000+0  76082-4 0  9996
2 38709  98.9766 276.5139 0010681 191.6469 168.4463 14.24982070721446
SPOT 6                  
1 38755U 12047A   26159.48545483  .00000280  00000+0  70019-4 0  9996
2 38755  98.2116 226.8960 0001450  93.2115 266.9250 14.58558125731781
PLEIADES 1B             
1 39019U 12068A   26159.50435620  .00000221  00000+0  57398-4 0  9997
2 39019  98.1941 234.6754 0001585  94.8045 265.3336 14.58555276719582
GOKTURK 2               
1 39030U 12073A   26159.46851659  .00000733  00000+0  11460-3 0  9992
2 39030  97.6827 357.3370 0001908  60.8351 299.3050 14.75535365723223
LANDSAT 8               
1 39084U 13008A   26159.44096826  .00000319  00000+0  80979-4 0  9997
2 39084  98.2302 229.6798 0001463  96.1709 263.9656 14.57112981696624
SARAL                   
1 39086U 13009A   26159.52156304  .00000092  00000+0  49634-4 0  9998
2 39086  98.5558 346.1988 0001201 351.1535   8.9628 14.32853856694360
GAOFEN-1                
1 39150U 13018A   26159.04994713  .00000198  00000+0  35695-4 0  9990
2 39150  97.9091 231.3033 0015888 298.8203  61.1412 14.76526544706891
VNREDSAT 1              
1 39160U 13021B   26159.48229912  .00000743  00000+0  14760-3 0  9990
2 39160  97.9081 213.2326 0001663  89.9180 270.2214 14.64848828699011
ARIRANG-5 (KOMPSAT-5)   
1 39227U 13042A   26159.51984909  .00001686  00000+0  12456-3 0  9992
2 39227  97.6217 346.3423 0004230 141.7042 218.4485 15.04557540702557
SKYSAT-A                
1 39418U 13066C   26159.39486828  .00002915  00000+0  16829-3 0  9997
2 39418  97.3819 209.0723 0020908 349.3265  10.7520 15.12928257687152
DUBAISAT-2              
1 39419U 13066D   26159.52320841  .00004867  00000+0  30183-3 0  9992
2 39419  97.4564 149.8953 0012784  66.7040 293.5533 15.10118095685085
GPM-CORE                
1 39574U 14009C   26159.46934397  .00006834  00000+0  14689-3 0  9991
2 39574  64.9731 337.3313 0012072 270.1080  89.8678 15.45447219696462
SENTINEL-1A             
1 39634U 14016A   26159.52178532  .00000185  00000+0  49027-4 0  9992
2 39634  98.1783 167.1813 0001442  81.9707 278.1656 14.59200540648758
KAZEOSAT 1              
1 39731U 14024A   26159.48737557  .00000084  00000+0  38433-4 0  9999
2 39731  98.3201 232.1508 0001473  74.9187 285.2166 14.42076609637308
ALOS-2                  
1 39766U 14029A   26159.54979363  .00001420  00000+0  19696-3 0  9996
2 39766  97.9209 256.8374 0001670  90.8878 269.2525 14.79471931650309
