OBJECT_NAME,OBJECT_ID,EPOCH,MEAN_MOTION,ECCENTRICITY,INCLINATION,RA_OF_ASC_NODE,ARG_OF_PERICENTER,MEAN_ANOMALY,EPHEMERIS_TYPE,CLASSIFICATION_TYPE,NORAD_CAT_ID,ELEMENT_SET_NO,REV_AT_EPOCH,BSTAR,MEAN_MOTION_DOT,MEAN_MOTION_DDOT
DUBAISAT-1,2009-041B,2026-06-08T08:07:44.338368,14.75110184,.0011742,98.0042,292.6943,98.7756,261.4783,0,U,35682,999,90379,.13296E-3,.847E-5,0
OCEANSAT-2,2009-051A,2026-06-08T11:28:43.671072,13.99664089,.0014646,98.2330,147.1985,262.7015,97.2487,0,U,35931,999,87811,.9836E-4,.106E-5,0
WORLDVIEW-2 (WV-2),2009-055A,2026-06-08T11:10:22.136736,14.37896896,.0003269,98.4736,233.0351,239.8635,120.2228,0,U,35946,999,87439,.51519E-4,.112E-5,0
SMOS,2009-059A,2026-06-08T12:03:41.571072,14.39768016,.000134,98.4427,346.9649,90.3378,269.7964,0,U,36036,999,87220,.98489E-4,.265E-5,0
YAOGAN-7,2009-069A,2026-06-08T10:09:27.251712,14.78001090,.0025957,98.0083,45.3441,68.7505,291.6475,0,U,36110,999,88833,.79015E-4,.52E-5,0
TANDEM-X,2010-030A,2026-06-08T11:55:50.532960,15.19149084,.0001832,97.4452,167.3280,92.3197,267.8248,0,U,36605,999,88532,.53316E-4,.1053E-4,0
CARTOSAT-2B,2010-035A,2026-06-08T11:23:51.643392,14.78650175,.0010458,97.9954,210.0799,213.7437,146.3110,0,U,36795,999,85856,.67773E-4,.444E-5,0
YAOGAN-10,2010-038A,2026-06-08T12:53:21.958944,14.85325257,.0001703,97.8982,183.0109,86.9930,32.0865,0,U,36834,999,85592,.24156E-3,.2023E-4,0
COSMO-SKYMED 4,2010-060A,2026-06-08T09:32:08.023776,14.82162251,.0001414,97.8890,343.1246,83.8256,276.3118,0,U,37216,999,84326,.70656E-4,.51E-5,0
RESOURCESAT-2,2011-015A,2026-06-08T12:03:20.849760,14.21604666,.0010135,98.7644,227.0038,283.5835,76.4213,0,U,37387,999,78494,.55281E-4,.77E-6,0
HAIYANG-2A,2011-043A,2026-06-08T12:30:52.240608,13.74550478,.0006292,99.3398,162.3886,108.3012,251.8822,0,U,37781,999,74546,.23845E-3,.182E-5,0
RASAT,2011-044D,2026-06-08T12:49:22.736352,14.68159688,.0019559,98.0568,251.0633,217.1467,269.2956,0,U,37791,999,79191,.14239E-3,.772E-5,0
SRMSAT,2011-058D,2026-06-08T04:49:16.000032,14.11573773,.00119531,19.9708,113.8594,105.3030,101.4235,0,U,37841,999,75654,.61376452E-4,.378E-5,0
PLEIADES 1A,2011-076F,2026-06-08T11:51:29.685312,14.58566300,.0001506,98.1971,234.7133,98.3371,27.3464,0,U,38012,999,77072,.95861E-4,.4E-5,0
ZIYUAN 1-02C (ZY 1-02C),2011-079A,2026-06-08T12:40:25.015584,14.38208346,.000606,98.4068,227.0174,345.7339,126.4961,0,U,38038,999,75796,.15826E-3,.438E-5,0
ARIRANG-3 (KOMPSAT-3),2012-025B,2026-06-08T11:29:33.829728,14.62198691,.0006312,98.1173,117.0894,131.7419,228.4323,0,U,38338,999,75007,.1003E-3,.459E-5,0
EXACTVIEW-1 (ADS-1B),2012-039C,2026-06-08T07:45:42.147936,14.24982070,.0010681,98.9766,276.5139,191.6469,168.4463,0,U,38709,999,72144,.76082E-4,.132E-5,0
SPOT 6,2012-047A,2026-06-08T11:39:03.297312,14.58558125,.000145,98.2116,226.8960,93.2115,266.9250,0,U,38755,999,73178,.70019E-4,.28E-5,0
PLEIADES 1B,2012-068A,2026-06-08T12:06:16.375680,14.58555276,.0001585,98.1941,234.6754,94.8045,265.3336,0,U,39019,999,71958,.57398E-4,.221E-5,0
GOKTURK 2,2012-073A,2026-06-08T11:14:39.833376,14.75535365,.0001908,97.6827,357.3370,60.8351,299.3050,0,U,39030,999,72322,.1146E-3,.733E-5,0
LANDSAT 8,2013-008A,2026-06-08T10:34:59.657664,14.57112981,.0001463,98.2302,229.6798,96.1709,263.9656,0,U,39084,999,69662,.80979E-4,.319E-5,0
SARAL,2013-009A,2026-06-08T12:31:03.046656,14.32853856,.0001201,98.5558,346.1988,351.1535,8.9628,0,U,39086,999,69436,.49634E-4,.92E-6,0
GAOFEN-1,2013-018A,2026-06-08T01:11:55.432032,14.76526544,.00158883,97.9091,231.3033,298.8203,61.1412,0,U,39150,999,70689,.35694952E-4,.198E-5,0
VNREDSAT 1,2013-021B,2026-06-08T11:34:30.643968,14.64848828,.0001663,97.9081,213.2326,89.9180,270.2214,0,U,39160,999,69901,.1476E-3,.743E-5,0
ARIRANG-5 (KOMPSAT-5),2013-042A,2026-06-08T12:28:34.961376,15.04557540,.000423,97.6217,346.3423,141.7042,218.4485,0,U,39227,999,70255,.12456E-3,.1686E-4,0
SKYSAT-A,2013-066C,2026-06-08T09:28:36.619392,15.12928257,.0020908,97.3819,209.0723,349.3265,10.7520,0,U,39418,999,68715,.16829E-3,.2915E-4,0
DUBAISAT-2,2013-066D,2026-06-08T12:33:25.206624,15.10118095,.0012784,97.4564,149.8953,66.7040,293.5533,0,U,39419,999,68508,.30183E-3,.4867E-4,0
GPM-CORE,2014-009C,2026-06-08T11:15:51.319008,15.45447219,.0012072,64.9731,337.3313,270.1080,89.8678,0,U,39574,999,69646,.14689E-3,.6834E-4,0
SENTINEL-1A,2014-016A,2026-06-08T12:31:22.251648,14.59200540,.0001442,98.1783,167.1813,81.9707,278.1656,0,U,39634,999,64875,.49027E-4,.185E-5,0
KAZEOSAT 1,2014-024A,2026-06-08T11:41:49.249248,14.42076609,.0001473,98.3201,232.1508,74.9187,285.2166,0,U,39731,999,63730,.38433E-4,.84E-6,0
ALOS-2,2014-029A,2026-06-08T13:11:42.169632,14.79471931,.000167,97.9209,256.8374,90.8878,269.2525,0,U,39766,999,65030,.19696E-3,.142E-4,0
